OBJECT_NAME,OBJECT_ID,EPOCH,MEAN_MOTION,ECCENTRICITY,INCLINATION,RA_OF_ASC_NODE,ARG_OF_PERICENTER,MEAN_ANOMALY,EPHEMERIS_TYPE,CLASSIFICATION_TYPE,NORAD_CAT_ID,ELEMENT_SET_NO,REV_AT_EPOCH,BSTAR,MEAN_MOTION_DOT,MEAN_MOTION_DDOT
KUIPER-00009,2025-088B,2025-05-19T20:00:01.999872,15.34850580,.0009185,51.8657,357.3410,184.8504,28.1789,0,U,63725,999,383,-.52572E-3,-.18403E-3,0
KUIPER-00010,2025-088C,2025-05-19T20:00:01.999872,15.34789625,.0009682,51.8672,357.3589,187.0606,18.0868,0,U,63726,999,344,-.54421E-3,-.19002E-3,0
KUIPER-00011,2025-088D,2025-05-19T14:00:01.000224,15.34203996,.0011743,51.8605,358.6398,192.3170,27.7842,0,U,63727,999,355,.83223E-3,.27751E-3,0
KUIPER-00012,2025-088E,2025-05-19T14:00:01.000224,15.34282752,.0011104,51.8593,358.6250,193.7106,32.6169,0,U,63728,999,350,.83641E-3,.27957E-3,0
KUIPER-00013,2025-088F,2025-05-19T14:00:01.000224,15.34549181,.0010474,51.8633,358.5911,187.4659,58.4625,0,U,63729,999,360,.84959E-3,.28644E-3,0
KUIPER-00014,2025-088G,2025-05-19T14:00:01.000224,15.34020010,.0011844,51.8619,358.6597,194.3688,16.9995,0,U,63730,999,257,.82542E-3,.27358E-3,0
KUIPER-00015,2025-088H,2025-05-19T20:00:01.999872,15.30604753,.0010889,51.8676,357.4800,197.0163,307.3502,0,U,63731,999,390,-.19022E-1,-.533954E-2,0
KUIPER-00016,2025-088J,2025-05-19T14:00:01.000224,15.35007094,.0008993,51.8648,358.5272,183.6995,94.6706,0,U,63732,999,329,.86334E-3,.29536E-3,0
KUIPER-00018,2025-088K,2025-05-19T14:00:01.000224,15.35623645,.0006487,51.8700,358.4390,170.6137,153.8923,0,U,63733,999,234,.86923E-3,.30323E-3,0
KUIPER-00019,2025-088L,2025-05-19T20:00:01.999872,15.35824395,.0004721,51.8702,357.1833,159.9478,133.2409,0,U,63734,999,345,-.55692E-3,-.20052E-3,0
KUIPER-00020,2025-088M,2025-05-19T14:00:01.000224,15.35478855,.0006368,51.8710,358.4548,177.1536,139.8221,0,U,63735,999,362,.87103E-3,.30244E-3,0
KUIPER-00021,2025-088N,2025-05-19T14:00:01.000224,15.35176495,.000696,51.8670,358.4830,177.6482,123.7843,0,U,63736,999,345,.87447E-3,.30073E-3,0
KUIPER-00023,2025-088P,2025-05-19T14:00:01.000224,15.35211445,.0008317,51.8680,358.4930,175.4153,121.5901,0,U,63737,999,375,.87112E-3,.29999E-3,0
KUIPER-00024,2025-088Q,2025-05-19T20:00:01.999872,15.36951565,.0001457,51.8726,357.0341,133.4893,231.3316,0,U,63738,999,392,-.66535E-3,-.24729E-3,0
KUIPER-00025,2025-088R,2025-05-19T14:00:01.000224,15.35661917,.0006067,51.8690,358.4249,175.2103,156.0138,0,U,63739,999,374,.87056E-3,.30406E-3,0
KUIPER-00027,2025-088S,2025-05-19T14:00:01.000224,15.36402423,.0002902,51.8731,358.3066,169.4173,219.2755,0,U,63740,999,348,.85351E-3,.30515E-3,0
KUIPER-00028,2025-088T,2025-05-19T14:00:01.000224,15.36556510,.0002363,51.8720,358.2843,164.5359,236.2070,0,U,63741,999,389,.84634E-3,.30406E-3,0
KUIPER-00029,2025-088U,2025-05-19T14:00:01.000224,15.35854616,.0005419,51.8721,358.4045,170.6812,171.0679,0,U,63742,999,317,.86847E-3,.30519E-3,0
KUIPER-00030,2025-088V,2025-05-19T14:00:01.000224,15.35155177,.0008481,51.8693,358.5092,181.5272,108.0051,0,U,63743,999,369,.86713E-3,.29806E-3,0
KUIPER-00031,2025-088W,2025-05-19T14:00:01.000224,15.36267997,.0004247,51.8721,358.3415,162.9106,209.7006,0,U,63744,999,338,.86057E-3,.30641E-3,0
KUIPER-00032,2025-088X,2025-05-19T14:00:01.000224,15.35864863,.0005192,51.8711,358.3870,163.6602,186.7855,0,U,63745,999,442,.86894E-3,.30545E-3,0
KUIPER-00033,2025-088Y,2025-05-19T20:00:01.999872,15.32627560,.0001903,51.8749,357.0999,261.9465,68.5483,0,U,63746,999,393,-.17858E-1,-.532647E-2,0
KUIPER-00034,2025-088Z,2025-05-19T14:00:01.000224,15.36818153,.0001879,51.8731,358.2539,160.1498,252.9724,0,U,63747,999,358,.83401E-3,.30212E-3,0
KUIPER-00035,2025-088AA,2025-05-19T14:00:01.000224,15.36378657,.0003626,51.8712,358.3263,168.9898,211.3648,0,U,63748,999,363,.85675E-3,.30611E-3,0
KUIPER-00037,2025-088AB,2025-05-19T14:00:01.000224,15.36532059,.000288,51.8725,358.2936,150.0187,245.4412,0,U,63749,999,442,.84913E-3,.30484E-3,0
KUIPER-00038,2025-088AC,2025-05-19T14:00:01.000224,15.36121492,.0004639,51.8727,358.3554,172.1782,193.2702,0,U,63750,999,130,.86365E-3,.30608E-3,0
STARLINK-11677 [DTC],2025-089A,2025-05-19T20:00:01.999872,15.77842599,.0001938,42.9972,265.7800,256.8611,131.3750,0,U,63751,999,389,.26336E-3,.45549E-3,0
STARLINK-11702 [DTC],2025-089B,2025-05-19T14:00:01.000224,15.77881419,.000181,42.9970,267.2343,248.2891,185.8117,0,U,63752,999,387,-.22763E-3,-.39972E-3,0
STARLINK-11706 [DTC],2025-089C,2025-05-19T20:00:01.999872,15.77840497,.0001894,42.9973,265.6422,259.0404,184.6971,0,U,63753,999,389,.27585E-3,.47741E-3,0
STARLINK-11662 [DTC],2025-089D,2025-05-19T20:00:01.999872,15.77868702,.0001629,42.9979,265.5738,296.3925,175.0784,0,U,63754,999,395,.12649E-3,.21581E-3,0
STARLINK-11681 [DTC],2025-089E,2025-05-19T14:00:01.000224,15.77882581,.0001715,42.9977,267.0279,266.3870,250.9655,0,U,63755,999,388,-.23202E-3,-.40731E-3,0
STARLINK-11688 [DTC],2025-089F,2025-05-19T20:00:01.999872,15.77848804,.0001685,42.9985,265.4352,276.5212,250.4775,0,U,63756,999,379,.12527E-3,.21348E-3,0
STARLINK-11676 [DTC],2025-089G,2025-05-19T20:00:01.999872,15.77873522,.0001219,42.9984,265.3658,285.9569,268.7771,0,U,63757,999,379,-.71572E-4,-.12943E-3,0
STARLINK-11705 [DTC],2025-089H,2025-05-19T14:00:01.000224,15.77846562,.0001869,42.9991,266.8202,269.8111,330.8183,0,U,63758,999,383,.68493E-5,.692E-5,0
STARLINK-11703 [DTC],2025-089J,2025-05-19T14:00:01.000224,15.77835539,.0001916,43.0002,266.7507,283.0573,345.3263,0,U,63759,999,388,.12697E-3,.21632E-3,0
STARLINK-11701 [DTC],2025-089K,2025-05-19T20:00:01.999872,15.78008514,.0001678,43.0017,265.1593,260.3494,17.5676,0,U,63760,999,390,-.13304E-2,-.227507E-2,0
STARLINK-11660 [DTC],2025-089L,2025-05-19T14:00:01.000224,15.81199293,.0001714,43.0024,266.6349,266.4936,48.8037,0,U,63761,999,383,-.60146E-2,-.1095736E-1,0
STARLINK-11699 [DTC],2025-089M,2025-05-19T20:00:01.999872,15.82919866,.0001848,43.0027,265.0718,268.8306,44.4301,0,U,63762,999,390,-.50985E-2,-.999422E-2,0
STARLINK-11693 [DTC],2025-089N,2025-05-19T20:00:01.999872,15.84967276,.0002433,43.0028,265.0566,272.3059,46.9891,0,U,63763,999,379,-.35624E-2,-.790154E-2,0
STARLINK-33760,2025-089P,2025-05-19T14:00:01.000224,15.54791966,.0001235,42.9993,268.0081,272.4761,208.8367,0,U,63764,999,399,-.24815E-1,-.1508792E-1,0
STARLINK-33941,2025-089Q,2025-05-19T14:00:01.000224,15.54791755,.0001155,42.9994,268.0033,273.9896,209.2406,0,U,63765,999,398,-.24816E-1,-.1508799E-1,0
STARLINK-33824,2025-089R,2025-05-19T14:00:01.000224,15.54793649,.0001211,42.9991,267.9989,270.9590,214.1861,0,U,63766,999,400,-.24837E-1,-.1510056E-1,0
STARLINK-33808,2025-089S,2025-05-19T14:00:01.000224,15.54788675,.0001325,42.9991,267.9935,281.1187,205.9472,0,U,63767,999,399,-.24721E-1,-.1503581E-1,0
STARLINK-33844,2025-089T,2025-05-19T14:00:01.000224,15.54791480,.0001171,42.9992,267.9896,275.1247,213.8569,0,U,63768,999,399,-.24811E-1,-.1508522E-1,0
STARLINK-33907,2025-089U,2025-05-19T14:00:01.000224,15.54790192,.0001397,42.9992,267.9843,276.3870,214.5129,0,U,63769,999,394,-.24801E-1,-.1508022E-1,0
STARLINK-33884,2025-089V,2025-05-19T14:00:01.000224,15.54787511,.0001099,42.9992,267.9794,276.6819,216.1351,0,U,63770,999,394,-.24673E-1,-.150082E-1,0
STARLINK-33841,2025-089W,2025-05-19T14:00:01.000224,15.54787844,.0001225,42.9992,267.9738,274.6801,220.0538,0,U,63771,999,394,-.24678E-1,-.1501165E-1,0
BIOMASS,2025-090A,2025-05-19T11:39:54.499680,14.69146869,.000141,98.0762,327.4290,88.7386,271.3981,0,U,63772,999,294,.27125E-3,.1547E-4,0
STARLINK-33769,2025-089X,2025-05-19T14:00:01.000224,15.54789322,.0001128,42.9992,267.9686,271.0964,225.5519,0,U,63773,999,398,-.24674E-1,-.1500977E-1,0
STARLINK-33914,2025-089Y,2025-05-19T14:00:01.000224,15.64689205,.0001225,42.9995,266.7639,257.3570,4.1675,0,U,63774,999,400,-.22553E-1,-.1981442E-1,0
STARLINK-33932,2025-091A,2025-05-19T20:00:01.999872,15.68327492,.0001457,42.9993,275.8064,276.7753,232.5650,0,U,63775,999,396,-.13196E-1,-.1355156E-1,0
STARLINK-33930,2025-091B,2025-05-19T20:00:01.999872,15.68325034,.0001301,42.9992,275.8018,271.0896,240.1685,0,U,63776,999,391,-.13172E-1,-.1352765E-1,0
STARLINK-33911,2025-091C,2025-05-19T14:00:01.000224,15.69133597,.0001218,42.9989,277.2993,257.9002,281.6254,0,U,63777,999,389,-.13514E-1,-.1451144E-1,0
STARLINK-33938,2025-091D,2025-05-19T20:00:01.999872,15.68328105,.0001096,42.9992,275.7917,266.2901,248.7985,0,U,63778,999,400,-.13198E-1,-.1355188E-1,0
STARLINK-33881,2025-091E,2025-05-19T14:00:01.000224,15.69131552,.0001309,42.9989,277.2890,261.4924,281.8660,0,U,63779,999,389,-.13451E-1,-.1419734E-1,0
STARLINK-33846,2025-091F,2025-05-19T14:00:01.000224,15.69131961,.0001251,42.9989,277.2840,258.2971,286.9787,0,U,63780,999,394,-.13467E-1,-.1421213E-1,0
STARLINK-33883,2025-091G,2025-05-19T14:00:01.000224,15.69130999,.0001188,42.9989,277.2792,258.1446,289.0485,0,U,63781,999,389,-.13453E-1,-.1419824E-1,0
STARLINK-33842,2025-091H,2025-05-19T14:00:01.000224,15.69134841,.0001146,42.9989,277.2741,255.0541,294.0546,0,U,63782,999,398,-.13513E-1,-.145108E-1,0
STARLINK-33892,2025-091J,2025-05-19T14:00:01.000224,15.69132236,.0001396,42.9989,277.2693,264.3379,286.6922,0,U,63783,999,389,-.13501E-1,-.1424472E-1,0
STARLINK-33933,2025-091K,2025-05-19T14:00:01.000224,15.69133066,.0001203,42.9989,277.2649,257.5915,295.3530,0,U,63784,999,400,-.13493E-1,-.1423664E-1,0
STARLINK-33906,2025-091L,2025-05-19T14:00:01.000224,15.69132708,.0001259,42.9989,277.2595,258.3403,296.5223,0,U,63785,999,384,-.13498E-1,-.1424142E-1,0
STARLINK-33923,2025-091M,2025-05-19T14:00:01.000224,15.69131846,.0001203,42.9989,277.2549,256.0703,300.7087,0,U,63786,999,384,-.13476E-1,-.1422018E-1,0
STARLINK-33947,2025-091N,2025-05-19T14:00:01.000224,15.69134722,.0001313,42.9989,277.2504,257.2825,301.4132,0,U,63787,999,389,-.13522E-1,-.1452025E-1,0
STARLINK-33882,2025-091P,2025-05-19T14:00:01.000224,15.69132227,.0001395,42.9989,277.2455,253.4250,307.1877,0,U,63788,999,389,-.13482E-1,-.1422703E-1,0
STARLINK-33875,2025-091Q,2025-05-19T20:00:01.999872,15.68328440,.0001144,42.9992,275.7370,261.2011,274.9763,0,U,63789,999,391,-.13218E-1,-.1357052E-1,0
